PHISAT 2                
1 60470U 24149C   26068.78834181  .00008925  00000+0  31421-3 0  9996
2 60470  97.3806 148.6498 0001175 168.6230 191.5037 15.29548631 86792
STARLINK-35257          
1 66331U 25253N   26068.46637722  .00023174  00000+0  84901-3 0  9996
2 66331  42.9990 213.4736 0001150 225.9351 134.1406 15.27580068 20210
