[{"OBJECT_NAME":"PHISAT 2","OBJECT_ID":"2024-149C","EPOCH":"2026-03-09T18:55:12.732384","MEAN_MOTION":15.29548632,"ECCENTRICITY":0.00011753,"INCLINATION":97.3806,"RA_OF_ASC_NODE":148.6498,"ARG_OF_PERICENTER":168.623,"MEAN_ANOMALY":191.5037,"EPHEMERIS_TYPE":0,"CLASSIFICATION_TYPE":"U","NORAD_CAT_ID":60470,"ELEMENT_SET_NO":999,"REV_AT_EPOCH":8679,"BSTAR":0.00031420974,"MEAN_MOTION_DOT":8.925e-5,"MEAN_MOTION_DDOT":0},{"OBJECT_NAME":"STARLINK-35257","OBJECT_ID":"2025-253N","EPOCH":"2026-03-09T11:11:34.991808","MEAN_MOTION":15.27580068,"ECCENTRICITY":0.000115,"INCLINATION":42.999,"RA_OF_ASC_NODE":213.4736,"ARG_OF_PERICENTER":225.9351,"MEAN_ANOMALY":134.1406,"EPHEMERIS_TYPE":0,"CLASSIFICATION_TYPE":"U","NORAD_CAT_ID":66331,"ELEMENT_SET_NO":999,"REV_AT_EPOCH":2021,"BSTAR":0.00084901227,"MEAN_MOTION_DOT":0.00023174,"MEAN_MOTION_DDOT":0}]
